NORAD_CAT_ID,OBJECT_NAME,OBJECT_TYPE,EPOCH,MEAN_MOTION,ECCENTRICITY,INCLINATION,RA_OF_ASC_NODE,ARG_OF_PERICENTER,MEAN_ANOMALY,BSTAR,MEAN_MOTION_DOT,MEAN_MOTION_DDOT,TLE_LINE0,TLE_LINE1,TLE_LINE2,SEMIMAJOR_AXIS,PERIOD,APOGEE,PERIGEE,DECAYED
51984.0,STARLINK-3664,PAYLOAD,2023-09-09 02:49:43,15.08827796,0.0001592,53.2182,175.8146,81.9826,278.1347,0.00030921,4.635e-05,0.0,0 STARLINK-3664,1 51984U 22025AE  23252.11786408  .00004635  00000-0  30921-3 0  9993,2 51984  53.2182 175.8146 0001592  81.9826 278.1347 15.08827796 84392,6917.918,95.438,540.884,538.681,0.0
51984.0,STARLINK-3664,PAYLOAD,2023-09-09 04:25:06,15.08842949,0.0001486,53.2181,175.5167,81.0123,279.1037,0.00014205,1.974e-05,0.0,0 STARLINK-3664,1 51984U 22025AE  23252.18409856  .00001974  00000-0  14205-3 0  9999,2 51984  53.2181 175.5167 0001486  81.0123 279.1037 15.08842949 84400,6917.871,95.437,540.764,538.708,0.0
51984.0,STARLINK-3664,PAYLOAD,2023-09-09 12:22:02,15.08840314,0.0001521,53.2179,174.0316,84.7016,275.4149,6.6071e-05,7.64e-06,0.0,0 STARLINK-3664,1 51984U 22025AE  23252.51530241  .00000764  00000-0  66071-4 0  9994,2 51984  53.2179 174.0316 0001521  84.7016 275.4149 15.08840314 83358,6917.879,95.438,540.797,538.692,0.0
51984.0,STARLINK-3664,PAYLOAD,2023-09-09 18:43:34,15.08836972,0.000137,53.2178,172.8406,88.1095,272.0054,3.0748e-05,2.01e-06,0.0,0 STARLINK-3664,1 51984U 22025AE  23252.78026525  .00000201  00000-0  30748-4 0  9996,2 51984  53.2178 172.8406 0001370  88.1095 272.0054 15.08836972 84499,6917.89,95.438,540.702,538.807,0.0
51984.0,STARLINK-3664,PAYLOAD,2023-09-10 01:05:06,15.08845337,0.0001428,53.2171,171.6518,88.6216,271.494,6.5046e-05,7.48e-06,0.0,0 STARLINK-3664,1 51984U 22025AE  23253.04521894  .00000748  00000-0  65046-4 0  9990,2 51984  53.2171 171.6518 0001428  88.6216 271.4940 15.08845337 84534,6917.864,95.437,540.717,538.741,0.0
51984.0,STARLINK-3664,PAYLOAD,2023-09-10 04:15:53,15.08846417,0.0001382,53.2168,171.0571,88.8294,271.2856,5.5623e-05,5.98e-06,0.0,0 STARLINK-3664,1 51984U 22025AE  23253.17769785  .00000598  00000-0  55623-4 0  9990,2 51984  53.2168 171.0571 0001382  88.8294 271.2856 15.08846417 83454,6917.861,95.437,540.682,538.77,0.0
51984.0,STARLINK-3664,PAYLOAD,2023-09-11 00:55:54,15.08842436,0.0001357,53.2167,167.1914,95.3191,264.7956,-2.1347e-05,-6.28e-06,0.0,0 STARLINK-3664,1 51984U 22025AE  23254.03882364 -.00000628  00000-0 -21347-4 0  9997,2 51984  53.2167 167.1914 0001357  95.3191 264.7956 15.08842436 84682,6917.873,95.437,540.677,538.799,0.0
51984.0,STARLINK-3664,PAYLOAD,2023-09-11 04:06:40,15.08843948,0.0001381,53.2168,166.5965,95.5451,264.5699,-6.481e-06,-3.91e-06,0.0,0 STARLINK-3664,1 51984U 22025AE  23254.17130192 -.00000391  00000-0 -64810-5 0  9997,2 51984  53.2168 166.5965 0001381  95.5451 264.5699 15.08843948 83602,6917.868,95.437,540.689,538.778,0.0
51984.0,STARLINK-3664,PAYLOAD,2023-09-12 03:57:26,15.08850314,0.0001327,53.2167,162.1366,91.5168,268.5976,8.7104e-05,1.099e-05,0.0,0 STARLINK-3664,1 51984U 22025AE  23255.16489450  .00001099  00000-0  87104-4 0  9995,2 51984  53.2167 162.1366 0001327  91.5168 268.5976 15.08850314 84854,6917.849,95.437,540.632,538.796,0.0
51984.0,STARLINK-3664,PAYLOAD,2023-09-12 18:15:56,15.0883894,0.0001754,53.2168,159.4606,96.2241,263.8951,2.4068e-05,9.5e-07,0.0,0 STARLINK-3664,1 51984U 22025AE  23255.76106489  .00000095  00000-0  24068-4 0  9994,2 51984  53.2168 159.4606 0001754  96.2241 263.8951 15.08838940 84941,6917.884,95.438,540.962,538.535,0.0
51984.0,STARLINK-3664,PAYLOAD,2023-09-12 21:26:42,15.0884059,0.0001248,53.2166,158.8659,91.8631,268.2504,4.0149e-05,3.51e-06,0.0,0 STARLINK-3664,1 51984U 22025AE  23255.89354358  .00000351  00000-0  40149-4 0  9991,2 51984  53.2166 158.8659 0001248  91.8631 268.2504 15.08840590 83869,6917.879,95.438,540.607,538.88,0.0
51984.0,STARLINK-3664,PAYLOAD,2023-09-13 00:37:28,15.08845642,0.0001254,53.2167,158.2719,86.1054,274.0081,8.2423e-05,1.024e-05,0.0,0 STARLINK-3664,1 51984U 22025AE  23256.02601951  .00001024  00000-0  82423-4 0  9990,2 51984  53.2167 158.2719 0001254  86.1054 274.0081 15.08845642 83884,6917.863,95.437,540.596,538.861,0.0
51984.0,STARLINK-3664,PAYLOAD,2023-09-13 21:17:29,15.08836031,0.0001297,53.2167,154.4053,96.1254,263.9886,5.8703e-05,6.46e-06,0.0,0 STARLINK-3664,1 51984U 22025AE  23256.88714598  .00000646  00000-0  58703-4 0  9999,2 51984  53.2167 154.4053 0001297  96.1254 263.9886 15.08836031 84011,6917.893,95.438,540.655,538.86,0.0
51984.0,STARLINK-3664,PAYLOAD,2023-09-14 02:03:38,15.08840359,0.0001175,53.217,153.5144,90.6441,269.4686,0.00012158,1.648e-05,0.0,0 STARLINK-3664,1 51984U 22025AE  23257.08586270  .00001648  00000-0  12158-3 0  9992,2 51984  53.2170 153.5144 0001175  90.6441 269.4686 15.08840359 85140,6917.879,95.438,540.557,538.931,0.0
51984.0,STARLINK-3664,PAYLOAD,2023-09-14 11:35:57,15.08836984,0.0001667,53.2169,151.731,99.0844,261.0337,7.2139e-05,8.6e-06,0.0,0 STARLINK-3664,1 51984U 22025AE  23257.48330721  .00000860  00000-0  72139-4 0  9995,2 51984  53.2169 151.7310 0001667  99.0844 261.0337 15.08836984 84104,6917.89,95.438,540.908,538.601,0.0
51984.0,STARLINK-3664,PAYLOAD,2023-09-14 21:08:17,15.08832154,0.000119,53.2169,149.9466,93.0056,267.1072,1.0027e-05,-1.28e-06,0.0,0 STARLINK-3664,1 51984U 22025AE  23257.88075314 -.00000128  00000-0  10027-4 0  9999,2 51984  53.2169 149.9466 0001190  93.0056 267.1072 15.08832154 84169,6917.904,95.438,540.593,538.946,0.0
51984.0,STARLINK-3664,PAYLOAD,2023-09-15 01:54:26,15.08837808,0.0001167,53.2168,149.0549,89.4283,270.6843,6.7072e-05,7.8e-06,0.0,0 STARLINK-3664,1 51984U 22025AE  23258.07946887  .00000780  00000-0  67072-4 0  9998,2 51984  53.2168 149.0549 0001167  89.4283 270.6843 15.08837808 85297,6917.887,95.438,540.559,538.945,0.0
51984.0,STARLINK-3664,PAYLOAD,2023-09-15 03:29:49,15.08840215,0.0001223,53.2168,148.7566,93.5592,266.554,7.0699e-05,8.38e-06,0.0,0 STARLINK-3664,1 51984U 22025AE  23258.14570750  .00000838  00000-0  70699-4 0  9991,2 51984  53.2168 148.7566 0001223  93.5592 266.5540 15.08840215 84208,6917.88,95.438,540.591,538.899,0.0
51984.0,STARLINK-3664,PAYLOAD,2023-09-16 01:45:12,15.08849282,0.000129,53.2175,144.592,88.0037,272.1103,0.0001384,1.916e-05,0.0,0 STARLINK-3664,1 51984U 22025AE  23259.07306087  .00001916  00000-0  13840-3 0  9996,2 51984  53.2175 144.5920 0001290  88.0037 272.1103 15.08849282 85449,6917.852,95.437,540.609,538.825,0.0
51984.0,STARLINK-3664,PAYLOAD,2023-09-16 16:03:41,15.08835178,0.0001324,53.2167,141.9153,125.1266,234.985,9.3465e-05,1.2e-05,0.0,0 STARLINK-3664,1 51984U 22025AE  23259.66922912  .00001200  00000-0  93465-4 0  9990,2 51984  53.2167 141.9153 0001324 125.1266 234.9850 15.08835178 85538,6917.895,95.438,540.676,538.844,0.0
51984.0,STARLINK-3664,PAYLOAD,2023-09-17 01:35:59,15.08843135,0.0001296,53.2169,140.1323,97.736,262.378,8.8759e-05,1.125e-05,0.0,0 STARLINK-3664,1 51984U 22025AE  23260.06666648  .00001125  00000-0  88759-4 0  9993,2 51984  53.2169 140.1323 0001296  97.7360 262.3780 15.08843135 84490,6917.871,95.437,540.632,538.839,0.0
51984.0,STARLINK-3664,PAYLOAD,2023-09-17 22:16:00,15.08852199,0.000118,53.2168,136.2692,90.6309,269.4819,5.5608e-05,5.98e-06,0.0,0 STARLINK-3664,1 51984U 22025AE  23260.92778085  .00000598  00000-0  55608-4 0  9997,2 51984  53.2168 136.2692 0001180  90.6309 269.4819 15.08852199 84627,6917.843,95.437,540.524,538.892,0.0
51984.0,STARLINK-3664,PAYLOAD,2023-09-18 20:31:24,15.0884112,0.0001229,53.2167,132.104,95.0138,265.0995,4.1817e-05,3.78e-06,0.0,0 STARLINK-3664,1 51984U 22025AE  23261.85514733  .00000378  00000-0  41817-4 0  9991,2 51984  53.2167 132.1040 0001229  95.0138 265.0995 15.08841120 84765,6917.877,95.437,540.592,538.892,0.0
51984.0,STARLINK-3664,PAYLOAD,2023-09-18 22:06:47,15.08842012,0.0001208,53.216,131.8078,85.2189,274.8942,5.7906e-05,6.34e-06,0.0,0 STARLINK-3664,1 51984U 22025AE  23261.92138638  .00000634  00000-0  57906-4 0  9996,2 51984  53.2160 131.8078 0001208  85.2189 274.8942 15.08842012 85873,6917.874,95.437,540.575,538.904,0.0
51984.0,STARLINK-3664,PAYLOAD,2023-09-19 04:28:19,15.08847265,0.0001209,53.2161,130.6191,83.8013,276.3117,0.0002515,3.718e-05,0.0,0 STARLINK-3664,1 51984U 22025AE  23262.18633800  .00003718  00000-0  25150-3 0  9997,2 51984  53.2161 130.6191 0001209  83.8013 276.3117 15.08847265 85919,6917.858,95.437,540.56,538.887,0.0
51984.0,STARLINK-3664,PAYLOAD,2023-09-19 18:46:48,15.08846604,0.000125,53.2153,127.9411,88.8026,271.3109,0.00024866,3.672e-05,0.0,0 STARLINK-3664,1 51984U 22025AE  23262.78250151  .00003672  00000-0  24866-3 0  9999,2 51984  53.2153 127.9411 0001250  88.8026 271.3109 15.08846604 86002,6917.86,95.437,540.59,538.86,0.0
51984.0,STARLINK-3664,PAYLOAD,2023-09-20 10:40:40,15.08828887,0.0001127,53.2163,124.9668,104.8398,255.2719,0.00021748,3.174e-05,0.0,0 STARLINK-3664,1 51984U 22025AE  23263.44490958  .00003174  00000-0  21748-3 0  9997,2 51984  53.2163 124.9668 0001127 104.8398 255.2719 15.08828887 85008,6917.914,95.438,540.559,539.0,0.0
51984.0,STARLINK-3664,PAYLOAD,2023-09-20 18:37:36,15.08818617,0.000129,53.2153,123.4805,96.3993,263.7146,-0.00027003,-4.58e-05,0.0,0 STARLINK-3664,1 51984U 22025AE  23263.77611920 -.00004580  00000-0 -27003-3 0  9991,2 51984  53.2153 123.4805 0001290  96.3993 263.7146 15.08818617 86156,6917.946,95.439,540.703,538.918,0.0
51984.0,STARLINK-3664,PAYLOAD,2023-09-20 20:13:00,15.08817792,0.000123,53.2167,123.1846,79.8794,280.2337,-0.00011291,-2.083e-05,0.0,0 STARLINK-3664,1 51984U 22025AE  23263.84236894 -.00002083  00000-0 -11291-3 0  9990,2 51984  53.2167 123.1846 0001230  79.8794 280.2337 15.08817792 85060,6917.948,95.439,540.664,538.962,0.0
51984.0,STARLINK-3664,PAYLOAD,2023-09-21 00:59:09,15.08823527,0.0001268,53.2163,122.2909,94.8119,265.3018,-8.4215e-05,-1.627e-05,0.0,0 STARLINK-3664,1 51984U 22025AE  23264.04108559 -.00001627  00000-0 -84215-4 0  9999,2 51984  53.2163 122.2909 0001268  94.8119 265.3018 15.08823527 85091,6917.931,95.439,540.673,538.919,0.0
